{
    "links": {
        "self": "http://www.neowsapp.com/rest/v1/neo/3725655?api_key=iIulBulltgU6a56xZRHN4H3l9WmuAYTsLGpBGhQ2"
    },
    "id": "3725655",
    "neo_reference_id": "3725655",
    "name": "(2015 PV56)",
    "designation": "2015 PV56",
    "nasa_jpl_url": "http://ssd.jpl.nasa.gov/sbdb.cgi?sstr=3725655",
    "absolute_magnitude_h": 23.2,
    "estimated_diameter": {
        "kilometers": {
            "estimated_diameter_min": 0.0608912622,
            "estimated_diameter_max": 0.1361570015
        },
        "meters": {
            "estimated_diameter_min": 60.8912622106,
            "estimated_diameter_max": 136.1570015386
        },
        "miles": {
            "estimated_diameter_min": 0.0378360645,
            "estimated_diameter_max": 0.0846040122
        },
        "feet": {
            "estimated_diameter_min": 199.7744887109,
            "estimated_diameter_max": 446.7093369279
        }
    },
    "is_potentially_hazardous_asteroid": false,
    "close_approach_data": [
        {
            "close_approach_date": "2015-08-06",
            "close_approach_date_full": "2015-Aug-06 06:31",
            "epoch_date_close_approach": 1438842660000,
            "relative_velocity": {
                "kilometers_per_second": "2.7970922554",
                "kilometers_per_hour": "10069.5321196191",
                "miles_per_hour": "6256.8156662155"
            },
            "miss_distance": {
                "astronomical": "0.2099210634",
                "lunar": "81.6592936626",
                "kilometers": "31403743.952774958",
                "miles": "19513381.6447241004"
            },
            "orbiting_body": "Earth"
        }
    ],
    "orbital_data": {
        "orbit_id": "9",
        "orbit_determination_date": "2017-04-06 08:32:33",
        "first_observation_date": "2015-08-10",
        "last_observation_date": "2015-09-30",
        "data_arc_in_days": 51,
        "observations_used": 23,
        "orbit_uncertainty": "8",
        "minimum_orbit_intersection": ".206691",
        "jupiter_tisserand_invariant": "3.624",
        "epoch_osculation": "2457247.5",
        "eccentricity": ".4207185805083496",
        "semi_major_axis": "2.107237467646779",
        "inclination": ".3259025230800006",
        "ascending_node_longitude": "232.4891187213438",
        "orbital_period": "1117.297035160566",
        "perihelion_distance": "1.220683511464417",
        "perihelion_argument": "83.35681630451148",
        "aphelion_distance": "2.993791423829141",
        "perihelion_time": "2457245.619110642129",
        "mean_anomaly": ".6060341588002616",
        "mean_motion": ".3222061713859866",
        "equinox": "J2000",
        "orbit_class": {
            "orbit_class_type": "AMO",
            "orbit_class_description": "Near-Earth asteroid orbits similar to that of 1221 Amor",
            "orbit_class_range": "1.017 AU < q (perihelion) < 1.3 AU"
        }
    },
    "is_sentry_object": false
}